TIANMU-1 21             
1 58662U 23208C   26156.70907010  .00010271  00000+0  30592-3 0  9998
2 58662  97.4496 276.2075 0006910   9.7448 350.3927 15.34865511135800
TIANMU-1 22             
1 58663U 23208D   26156.63476215  .00008012  00000+0  27095-3 0  9993
2 58663  97.4491 272.8237 0004270  41.8691 318.2876 15.30890059135562
TIANMU-1 15             
1 58700U 24004A   26156.76170093  .00006204  00000+0  23748-3 0  9991
2 58700  97.4672 342.9507 0007793  40.1374 320.0439 15.26900816134032
TIANMU-1 16             
1 58701U 24004B   26156.74887972  .00006192  00000+0  23903-3 0  9990
2 58701  97.4619 342.1877 0006891  44.8106 315.3688 15.26626171134030
TIANMU-1 17             
1 58702U 24004C   26156.73432860  .00006512  00000+0  25122-3 0  9993
2 58702  97.4647 342.6539 0006552  50.1675 310.0139 15.26626130134024
TIANMU-1 18             
1 58703U 24004D   26156.71265190  .00006197  00000+0  23741-3 0  9996
2 58703  97.4663 342.8804 0005042  49.2411 310.9264 15.26885004134025
INSAT-3DS               
1 58990U 24033A   26156.72204799 -.00000144  00000+0  00000+0 0  9991
2 58990   0.0047 213.1654 0001400 214.7525 168.2370  1.00275950 46957
METEOR-M2 4             
1 59051U 24039A   26156.71767608  .00000034  00000+0  34802-4 0  9997
2 59051  98.7006 116.1603 0006610 194.3239 165.7752 14.22428382117631
GOES 19                 
1 60133U 24119A   26156.61946917 -.00000236  00000+0  00000+0 0  9993
2 60133   0.0379 148.5040 0000653 341.6240 271.7430  1.00270243  6841
MTG-S1                  
1 64723U 25143A   26156.63385590 -.00000019  00000+0  00000+0 0  9995
2 64723   0.6135 336.3764 0001149  35.9917 106.4082  1.00271629  3305
METOP-SGA1              
1 65159U 25172A   26156.10248233  .00000054  00000+0  44615-4 0  9998
2 65159  98.6647 216.0502 0000977  86.3817 273.7472 14.21507730 42075
FENGYUN 3H              
1 65815U 25219A   26156.55505521  .00000069  00000+0  53043-4 0  9995
2 65815  98.6765  97.5505 0001643  86.8306 273.3058 14.19918325 35733
